NORAD_CAT_ID,OBJECT_NAME,OBJECT_TYPE,EPOCH,MEAN_MOTION,ECCENTRICITY,INCLINATION,RA_OF_ASC_NODE,ARG_OF_PERICENTER,MEAN_ANOMALY,BSTAR,MEAN_MOTION_DOT,MEAN_MOTION_DDOT,TLE_LINE0,TLE_LINE1,TLE_LINE2,SEMIMAJOR_AXIS,PERIOD,APOGEE,PERIGEE,DECAYED
53577.0,STARLINK-4553,PAYLOAD,2023-01-18 15:16:55,15.08842803,0.0001841999999999,53.2186,158.7034,71.6202,288.499,-2.6613e-06,-3.31e-06,0.0,0 STARLINK-4553,1 53577U 22101BC  23018.63675774 -.00000331  00000-0 -26613-5 0  9994,2 53577  53.2186 158.7034 0001842  71.6202 288.4990 15.08842803 24257,6917.871999999999,95.437,541.011,538.4630000000001,0.0
53577.0,STARLINK-4553,PAYLOAD,2023-01-19 08:46:10,15.08829802,0.0001806,53.2177,155.4317,78.1409,281.9786,7.1175e-05,8.45e-06,0.0,0 STARLINK-4553,1 53577U 22101BC  23019.36540387  .00000845  00000-0  71175-4 0  9996,2 53577  53.2177 155.4317 0001806  78.1409 281.9786 15.08829802 23542,6917.911999999999,95.438,541.026,538.5269999999999,0.0
53577.0,STARLINK-4553,PAYLOAD,2023-01-20 02:15:24,15.08862082,0.000185,53.218,152.1636,70.9594,289.1598,-0.0001256,-2.288e-05,0.0,0 STARLINK-4553,1 53577U 22101BC  23020.09403574 -.00002288  00000-0 -12560-3 0  9991,2 53577  53.2180 152.1636 0001850  70.9594 289.1598 15.08862082 23658,6917.813,95.436,540.9580000000001,538.398,0.0
53577.0,STARLINK-4553,PAYLOAD,2023-01-20 08:36:57,15.088437300000002,0.0001618,53.2174,150.9713,85.0068,275.1109,2.8225e-05,1.61e-06,0.0,0 STARLINK-4553,1 53577U 22101BC  23020.35899570  .00000161  00000-0  28225-4 0  9997,2 53577  53.2174 150.9713 0001618  85.0068 275.1109 15.08843730 23694,6917.869000000001,95.437,540.8530000000001,538.615,0.0
53577.0,STARLINK-4553,PAYLOAD,2023-01-21 11:38:30,15.08836985,0.0001653,53.2187,145.9192,87.6123,272.5058,7.6044e-07,-2.76e-06,0.0,0 STARLINK-4553,1 53577U 22101BC  23021.48507893 -.00000276  00000-0  76044-6 0  9998,2 53577  53.2187 145.9192 0001653  87.6123 272.5058 15.08836985 23869,6917.89,95.438,540.898,538.611,0.0
53577.0,STARLINK-4553,PAYLOAD,2023-01-21 14:49:16,15.08846907,0.0001291999999999,53.2168,145.3218,88.1293,271.9847,3.8352e-05,3.23e-06,0.0,0 STARLINK-4553,1 53577U 22101BC  23021.61755114  .00000323  00000-0  38352-4 0  9994,2 53577  53.2168 145.3218 0001292  88.1293 271.9847 15.08846907 23880,6917.859,95.437,540.618,538.83,0.0
53577.0,STARLINK-4553,PAYLOAD,2023-01-22 08:18:31,15.08833985,0.0001261,53.2163,142.0523,81.8544,278.2591,-6.0407e-05,-1.249e-05,0.0,0 STARLINK-4553,1 53577U 22101BC  23022.34620340 -.00001249  00000-0 -60407-4 0  9993,2 53577  53.2163 142.0523 0001261  81.8544 278.2591 15.08833985 23993,6917.899,95.438,540.636,538.891,0.0
53577.0,STARLINK-4553,PAYLOAD,2023-01-22 17:50:50,15.08844445,0.0001257,53.2171,140.267,91.4983,268.6153,-3.6959e-05,-8.76e-06,0.0,0 STARLINK-4553,1 53577U 22101BC  23022.74363526 -.00000876  00000-0 -36959-4 0  9997,2 53577  53.2171 140.2670 0001257  91.4983 268.6153 15.08844445 24052,6917.866999999999,95.437,540.601,538.862,0.0
53577.0,STARLINK-4553,PAYLOAD,2023-01-23 00:12:23,15.08838054,0.0001202,53.216,139.0771,88.9314,271.1816,-9.5442e-05,-1.806e-05,0.0,0 STARLINK-4553,1 53577U 22101BC  23023.00860125 -.00001806  00000-0 -95442-4 0  9990,2 53577  53.2160 139.0771 0001202  88.9314 271.1816 15.08838054 24095,6917.886,95.438,540.5830000000001,538.92,0.0
53577.0,STARLINK-4553,PAYLOAD,2023-01-23 14:30:50,15.08845006,0.0001001,53.2176,136.4016,95.906,264.2046,3.442e-05,2.6e-06,0.0,0 STARLINK-4553,1 53577U 22101BC  23023.60475551  .00000260  00000-0  34420-4 0  9991,2 53577  53.2176 136.4016 0001001  95.9060 264.2046 15.08845006 24181,6917.865,95.437,540.423,539.038,0.0
53577.0,STARLINK-4553,PAYLOAD,2023-01-24 11:10:53,15.08828027,0.0001551999999999,53.2155,132.5341,101.2366,258.8801,-1.9981e-05,-6.06e-06,0.0,0 STARLINK-4553,1 53577U 22101BC  23024.46589281 -.00000606  00000-0 -19981-4 0  9993,2 53577  53.2155 132.5341 0001552 101.2366 258.8801 15.08828027 24314,6917.917,95.438,540.856,538.7080000000001,0.0
53577.0,STARLINK-4553,PAYLOAD,2023-01-24 12:46:17,15.08811096,0.0001291,53.216,132.2377,116.7912,243.3212,-0.00017808,-3.119e-05,0.0,0 STARLINK-4553,1 53577U 22101BC  23024.53214676 -.00003119  00000-0 -17808-3 0  9991,2 53577  53.2160 132.2377 0001291 116.7912 243.3212 15.08811096 24328,6917.969,95.439,540.727,538.941,0.0
53577.0,STARLINK-4553,PAYLOAD,2023-01-25 11:01:40,15.08828971,0.0001093,53.2174,128.0754,121.4638,238.6461,1.2207e-05,-9.4e-07,0.0,0 STARLINK-4553,1 53577U 22101BC  23025.45949802 -.00000094  00000-0  12207-4 0  9996,2 53577  53.2174 128.0754 0001093 121.4638 238.6461 15.08828971 24461,6917.914000000001,95.438,540.535,539.023,0.0
53577.0,STARLINK-4553,PAYLOAD,2023-01-25 12:37:02,15.08848783,0.0001088,53.2177,127.7786,85.5321,274.5796,6.9423e-05,8.17e-06,0.0,0 STARLINK-4553,1 53577U 22101BC  23025.52572695  .00000817  00000-0  69423-4 0  9990,2 53577  53.2177 127.7786 0001088  85.5321 274.5796 15.08848783 25293,6917.854,95.437,540.471,538.966,0.0
53577.0,STARLINK-4553,PAYLOAD,2023-01-25 14:12:25,15.08849913,0.0001124,53.2165,127.4825,96.9402,263.1718,8.3159e-05,1.036e-05,0.0,0 STARLINK-4553,1 53577U 22101BC  23025.59196568  .00001036  00000-0  83159-4 0  9994,2 53577  53.2165 127.4825 0001124  96.9402 263.1718 15.08849913 24482,6917.85,95.437,540.493,538.938,0.0
53577.0,STARLINK-4553,PAYLOAD,2023-01-26 14:03:13,15.08835632,0.0001621,53.2181,123.0227,63.4642,296.6516,0.00027118,4.03e-05,0.0,0 STARLINK-4553,1 53577U 22101BC  23026.58556732  .00004030  00000-0  27118-3 0  9996,2 53577  53.2181 123.0227 0001621  63.4642 296.6516 15.08835632 24632,6917.894,95.438,540.88,538.637,0.0
53577.0,STARLINK-4553,PAYLOAD,2023-01-27 09:07:51,15.08840209,0.0001354,53.2168,119.454,77.6088,282.5056,-0.00014031,-2.52e-05,0.0,0 STARLINK-4553,1 53577U 22101BC  23027.38045823 -.00002520  00000-0 -14031-3 0  9993,2 53577  53.2168 119.4540 0001354  77.6088 282.5056 15.08840209 24750,6917.88,95.438,540.681,538.808,0.0
53577.0,STARLINK-4553,PAYLOAD,2023-01-27 12:18:37,15.08843767,0.0001266,53.2166,118.8585,89.5645,270.5492,-9.7096e-05,-1.833e-05,0.0,0 STARLINK-4553,1 53577U 22101BC  23027.51293350 -.00001833  00000-0 -97096-4 0  9997,2 53577  53.2166 118.8585 0001266  89.5645 270.5492 15.08843767 25599,6917.869000000001,95.437,540.61,538.8580000000001,0.0
53577.0,STARLINK-4553,PAYLOAD,2023-01-27 23:26:18,15.08846696,0.0001367,53.2168,116.7758,84.7911,275.3237,-6.4261e-05,-1.311e-05,0.0,0 STARLINK-4553,1 53577U 22101BC  23027.97660867 -.00001311  00000-0 -64261-4 0  9997,2 53577  53.2168 116.7758 0001367  84.7911 275.3237 15.08846696 24846,6917.86,95.437,540.6709999999999,538.779,0.0
53577.0,STARLINK-4553,PAYLOAD,2023-01-28 10:34:00,15.08840456,0.0001195,53.2166,114.6935,96.767,263.3458,3.1338e-05,2.11e-06,0.0,0 STARLINK-4553,1 53577U 22101BC  23028.44028735  .00000211  00000-0  31338-4 0  9997,2 53577  53.2166 114.6935 0001195  96.7670 263.3458 15.08840456 25731,6917.879,95.438,540.571,538.917,0.0
53577.0,STARLINK-4553,PAYLOAD,2023-01-28 15:20:09,15.08847737,0.0001314,53.2166,113.8009,103.2254,256.8884,-3.4005e-05,-8.29e-06,0.0,0 STARLINK-4553,1 53577U 22101BC  23028.63900420 -.00000829  00000-0 -34005-4 0  9999,2 53577  53.2166 113.8009 0001314 103.2254 256.8884 15.08847737 25761,6917.857,95.437,540.631,538.813,0.0
53577.0,STARLINK-4553,PAYLOAD,2023-01-29 10:24:47,15.08834424,0.000138,53.2167,110.2326,103.2214,256.8932,7.6358e-05,9.27e-06,0.0,0 STARLINK-4553,1 53577U 22101BC  23029.43388849  .00000927  00000-0  76358-4 0  9997,2 53577  53.2167 110.2326 0001380 103.2214 256.8932 15.08834424 25060,6917.897,95.438,540.717,538.808,0.0
53577.0,STARLINK-4553,PAYLOAD,2023-01-29 15:10:57,15.08842333,0.0001138,53.2173,109.3414,93.697,266.4152,4.6321e-05,4.49e-06,0.0,0 STARLINK-4553,1 53577U 22101BC  23029.63260475  .00000449  00000-0  46321-4 0  9999,2 53577  53.2173 109.3414 0001138  93.6970 266.4152 15.08842333 25919,6917.873,95.437,540.526,538.951,0.0
53577.0,STARLINK-4553,PAYLOAD,2023-01-30 10:15:35,15.08834398,0.0001175,53.2178,105.7714,113.8708,246.2408,2.9888e-05,1.88e-06,0.0,0 STARLINK-4553,1 53577U 22101BC  23030.42749119  .00000188  00000-0  29888-4 0  9994,2 53577  53.2178 105.7714 0001175 113.8708 246.2408 15.08834398 26038,6917.898,95.438,540.575,538.95,0.0
53577.0,STARLINK-4553,PAYLOAD,2023-01-30 21:23:17,15.08838459,0.0001217,53.2172,103.6913,98.2472,261.8658,-3.953e-06,-3.51e-06,0.0,0 STARLINK-4553,1 53577U 22101BC  23030.89117095 -.00000351  00000-0 -39530-5 0  9997,2 53577  53.2172 103.6913 0001217  98.2472 261.8658 15.08838459 26101,6917.885,95.438,540.592,538.908,0.0
53577.0,STARLINK-4553,PAYLOAD,2023-01-31 13:17:08,15.08841751,0.000114,53.217,100.7199,82.0682,278.0439,3.2677e-05,2.32e-06,0.0,0 STARLINK-4553,1 53577U 22101BC  23031.55356913  .00000232  00000-0  32677-4 0  9995,2 53577  53.2170 100.7199 0001140  82.0682 278.0439 15.08841751 26209,6917.875,95.437,540.529,538.951,0.0
53577.0,STARLINK-4553,PAYLOAD,2023-01-31 21:14:04,15.08842969,0.0001367,53.2188,99.2315,75.882,284.2324,1.3753e-06,-2.66e-06,0.0,0 STARLINK-4553,1 53577U 22101BC  23031.88476943 -.00000266  00000-0  13753-5 0  9990,2 53577  53.2188  99.2315 0001367  75.8820 284.2324 15.08842969 26254,6917.871,95.437,540.682,538.791,0.0
53577.0,STARLINK-4553,PAYLOAD,2023-02-01 11:32:32,15.0884034,0.0001136,53.2171,96.5563,91.6843,268.4279,4.0886e-05,3.63e-06,0.0,0 STARLINK-4553,1 53577U 22101BC  23032.48093006  .00000363  00000-0  40886-4 0  9995,2 53577  53.2171  96.5563 0001136  91.6843 268.4279 15.08840340 25529,6917.879,95.438,540.53,538.958,0.0
53577.0,STARLINK-4553,PAYLOAD,2023-02-01 13:07:55,15.08842412,0.0001155,53.2174,96.2589,90.971,269.1414,4.6925e-05,4.59e-06,0.0,0 STARLINK-4553,1 53577U 22101BC  23032.54716847  .00000459  00000-0  46925-4 0  9993,2 53577  53.2174  96.2589 0001155  90.9710 269.1414 15.08842412 26356,6917.873,95.437,540.537,538.939,0.0
